0 DMSP 5D-2 F9 (USA 29)
1 18822U 88006A   13281.50405893  .00000105  00000-0  62107-4 0  7884
2 18822 098.8061 144.3946 0005986 355.4222 004.6902 14.26602166335115
0 DMSP 5D-2 F9 (USA 29)
1 18822U 88006A   13282.27555757  .00000137  00000-0  75404-4 0  7894
2 18822 098.8060 145.1708 0005943 353.1391 006.9706 14.26603142335228
0 DMSP 5D-2 F9 (USA 29)
1 18822U 88006A   13283.25746399  .00000160  00000-0  85082-4 0  7908
2 18822 098.8058 146.1587 0005891 349.8466 010.2594 14.26603347335363
0 DMSP 5D-2 F9 (USA 29)
1 18822U 88006A   13284.16923435  .00000175  00000-0  91346-4 0  7914
2 18822 098.8056 147.0760 0005839 347.2006 012.9024 14.26603558335493
0 DMSP 5D-2 F9 (USA 29)
1 18822U 88006A   13284.16923435  .00000175  00000-0  91346-4 0  7925
2 18822 098.8056 147.0760 0005839 347.2006 012.9024 14.26603558335493
0 DMSP 5D-2 F9 (USA 29)
1 18822U 88006A   13285.22127685  .00000148  00000-0  79845-4 0  7937
2 18822 098.8054 148.1345 0005781 343.9099 016.1896 14.26604025335643
0 DMSP 5D-2 F9 (USA 29)
1 18822U 88006A   13286.48372728  .00000161  00000-0  85307-4 0  7942
2 18822 098.8051 149.4046 0005715 339.9352 020.1602 14.26604425335820
0 DMSP 5D-2 F9 (USA 29)
1 18822U 88006A   13287.46563286  .00000187  00000-0  96379-4 0  7952
2 18822 098.8049 150.3925 0005670 336.6495 023.4426 14.26604809335967
0 DMSP 5D-2 F9 (USA 29)
1 18822U 88006A   13288.23713024  .00000246  00000-0  12062-3 0  7968
2 18822 098.8047 151.1686 0005621 334.5746 025.5157 14.26605523336071
0 DMSP 5D-2 F9 (USA 29)
1 18822U 88006A   13289.49957947  .00000186  00000-0  95728-4 0  7976
2 18822 098.8044 152.4387 0005570 330.3468 029.7395 14.26606789336253
0 DMSP 5D-2 F9 (USA 29)
1 18822U 88006A   13289.49957947  .00000186  00000-0  95728-4 0  7987
2 18822 098.8044 152.4387 0005570 330.3468 029.7395 14.26606789336253
0 DMSP 5D-2 F9 (USA 29)
1 18822U 88006A   13290.27107570  .00000236  00000-0  11655-3 0  7997
2 18822 098.8044 153.2149 0005534 328.3198 031.7648 14.26607264336360
0 DMSP 5D-2 F9 (USA 29)
1 18822U 88006A   13291.25297943  .00000247  00000-0  12085-3 0  8003
2 18822 098.8042 154.2026 0005494 325.0480 035.0338 14.26607798336507
0 DMSP 5D-2 F9 (USA 29)
1 18822U 88006A   13292.51542675  .00000241  00000-0  11856-3 0  8018
2 18822 098.8041 155.4726 0005463 320.4113 039.6667 14.26608560336686
0 DMSP 5D-2 F9 (USA 29)
1 18822U 88006A   13293.21678641  .00000226  00000-0  11253-3 0  8024
2 18822 098.8040 156.1781 0005439 317.9432 042.1329 14.26608858336787
0 DMSP 5D-2 F9 (USA 29)
1 18822U 88006A   13294.54936882  .00000202  00000-0  10231-3 0  8035
2 18822 098.8039 157.5185 0005413 313.3803 046.6925 14.26609532336974
0 DMSP 5D-2 F9 (USA 29)
1 18822U 88006A   13295.25072781  .00000218  00000-0  10883-3 0  8044
2 18822 098.8039 158.2239 0005385 311.3457 048.7259 14.26609703337078
